[{"OBJECT_NAME":"WORLDVIEW-1 (WV-1)","OBJECT_ID":"2007-041A","EPOCH":"2026-03-09T21:34:39.100224","MEAN_MOTION":15.24538417,"ECCENTRICITY":0.0003152,"INCLINATION":97.3827,"RA_OF_ASC_NODE":190.0758,"ARG_OF_PERICENTER":137.5587,"MEAN_ANOMALY":222.5895,"EPHEMERIS_TYPE":0,"CLASSIFICATION_TYPE":"U","NORAD_CAT_ID":32060,"ELEMENT_SET_NO":999,"REV_AT_EPOCH":2775,"BSTAR":0.00037723819,"MEAN_MOTION_DOT":9.218e-5,"MEAN_MOTION_DDOT":0},{"OBJECT_NAME":"OBJECT B","OBJECT_ID":"2025-197B","EPOCH":"2026-03-09T22:54:10.410624","MEAN_MOTION":15.22275825,"ECCENTRICITY":0.00134905,"INCLINATION":97.4108,"RA_OF_ASC_NODE":256.8193,"ARG_OF_PERICENTER":3.3415,"MEAN_ANOMALY":356.7909,"EPHEMERIS_TYPE":0,"CLASSIFICATION_TYPE":"U","NORAD_CAT_ID":65489,"ELEMENT_SET_NO":999,"REV_AT_EPOCH":2819,"BSTAR":0.0002890926,"MEAN_MOTION_DOT":6.601e-5,"MEAN_MOTION_DDOT":0}]
